CAS-2T & KS-1Q          
1 41847U 16066G   21110.73108557  .00000208  00000-0  41176-4 0  9997
2 41847  98.6071 169.6006 0365896  32.8476 329.4888 14.38176811233585
NAYIF-1 (EO-88)         
1 42017U 17008BX  21110.67201659  .00003864  00000-0  14462-3 0  9992
2 42017  97.3197 179.3044 0004714 327.6681  32.4269 15.27885698232438
ZHUHAI-1 02 (CAS-4B)    
1 42759U 17034B   21110.56360392  .00000538  00000-0  45711-4 0  9999
2 42759  43.0161 139.3287 0008167 169.1490 329.1318 15.10160429212392
ZHUHAI-1 01 (CAS-4A)    
1 42761U 17034D   21110.55765854  .00000552  00000-0  46476-4 0  9998
2 42761  43.0165 138.4557 0009032 171.4966 326.0351 15.10241815212397
MAX VALIER SAT          
1 42778U 17036P   21110.57181499  .00002263  00000-0  97740-4 0  9998
2 42778  97.2616 161.0660 0012537  29.1864 331.0071 15.23432473212474
RADFXSAT (FOX-1B)       
1 43017U 17073E   21110.30621236  .00000957  00000-0  78214-4 0  9998
2 43017  97.7107  16.5934 0256395 129.8661 232.5411 14.79437715184525
FOX-1D (AO-92)          
1 43137U 18004AC  21110.46611171  .00002582  00000-0  10604-3 0  9994
2 43137  97.4093 185.0883 0010278  62.0032 298.2245 15.25063058181823
DIWATA-2B               
1 43678U 18084H   21110.76744550  .00000157  00000-0  21366-4 0  9997
2 43678  97.9141 235.7801 0008519 237.8866 122.1544 14.91731957134835
ES'HAIL 2               
1 43700U 18090A   21110.63990569  .00000144  00000-0  00000+0 0  9992
2 43700   0.0145 251.4731 0002547 169.3278  44.2980  1.00273155  9036
FOX-1CLIFF (AO-95)      
1 43770U 18099N   21110.69986211  .00000337  00000-0  35772-4 0  9996
2 43770  97.6686 182.1534 0013070 248.5213 111.4614 14.95268753129825
ITASAT 1                
1 43786U 18099AE  21110.16221063  .00000465  00000-0  47030-4 0  9994
2 43786  97.6706 182.2648 0013702 243.0081 116.9741 14.95570394129779
JY1SAT (JO-97)          
1 43803U 18099AX  21110.67063550  .00001063  00000-0  10028-3 0  9996
2 43803  97.6663 182.5214 0013789 240.3874 119.5974 14.95802170129854
UWE-4                   
1 43880U 18111E   21110.49250025  .00001333  00000-0  12137-3 0  9994
2 43880  97.6904  19.2057 0010684 303.1173  56.9023 14.96809132126413
PSAT2 (NO-104)          
1 44354U 19036R   21110.45096028  .00019873  00000-0  26682-3 0  9993
2 44354  28.5271 153.3519 0330892   7.8660 352.6964 15.12126212100184
BRICSAT2 (NO-103)       
1 44355U 19036S   21110.27756360  .00043508  00000-0  49540-3 0  9996
2 44355  28.5232 118.3414 0276170  64.9360 297.9638 15.26417851100520
JAISAT-1                
1 44419U 19038F   21110.46538879  .00001963  00000-0  11249-3 0  9997
2 44419  97.5830  75.4084 0021923 148.2161 212.0398 15.13597953 99027
DUCHIFAT-3              
1 44854U 19089C   21110.32712132  .00000842  00000-0  73766-4 0  9995
2 44854  36.9646  84.3629 0008040  20.3057 339.8065 14.99428142 74371
RS-44 & BREEZE-KM R/B   
1 44909U 19096E   21110.53724011  .00000013  00000-0  11686-4 0  9999
2 44909  82.5201 151.2982 0216551 228.3027 129.9369 12.79709659 61414
ORBITAL FACTORY 2 (OF-2)
1 45113U 19071C   21110.48480487  .00004727  00000-0  14627-3 0  9993
2 45113  51.6426 318.4988 0012740  85.1130 275.1307 15.35352720 68263
HUSKYSAT-1 (HO-107)     
1 45119U 19071J   21110.75809298  .00004749  00000-0  14666-3 0  9991
2 45119  51.6428 316.5707 0012061  82.7814 277.4540 15.35415818 68304
BY70-2                  
1 45857U 20042B   21110.72057868  .00001549  00000-0  22758-3 0  9991
2 45857  97.9848 187.0702 0012280  47.8976 312.3295 14.76864779 43028
SALSAT                  
1 46495U 20068K   21110.62402589  .00000872  00000-0  68515-4 0  9991
2 46495  97.6898  48.4764 0015296 267.9041  92.0432 15.03420748 30649
BY70-3                  
1 46839U 20079N   21110.77504539  .00005487  00000-0  17272-3 0  9999
2 46839  97.2424 185.7805 0008827  60.4205  88.4939 15.33302125 25368
RADFXSAT-2 (AO-109)     
1 47311U 21002C   21110.53089161  .00001585  00000-0  81405-4 0  9990
2 47311  60.6844 147.9977 0027522  13.1653 347.0145 15.21460946 14059
UVSQ-SAT                
1 47438U 21006AB  21110.44962735  .00001480  00000-0  87417-4 0  9994
2 47438  97.4926 172.6993 0011287 302.2700  57.7437 15.13007825 13284
